[{"OBJECT_NAME":"GAOFEN-9 03","OBJECT_ID":"2020-039A","EPOCH":"2026-03-09T21:55:15.121344","MEAN_MOTION":15.30529116,"ECCENTRICITY":0.0013094,"INCLINATION":97.5219,"RA_OF_ASC_NODE":201.2158,"ARG_OF_PERICENTER":77.4533,"MEAN_ANOMALY":282.8172,"EPHEMERIS_TYPE":0,"CLASSIFICATION_TYPE":"U","NORAD_CAT_ID":45794,"ELEMENT_SET_NO":999,"REV_AT_EPOCH":31856,"BSTAR":0.00039258132,"MEAN_MOTION_DOT":0.00011544,"MEAN_MOTION_DDOT":0},{"OBJECT_NAME":"STARLINK-30424","OBJECT_ID":"2023-141T","EPOCH":"2026-03-09T22:03:56.584224","MEAN_MOTION":15.30169351,"ECCENTRICITY":0.0001696,"INCLINATION":53.16,"RA_OF_ASC_NODE":257.0451,"ARG_OF_PERICENTER":123.1618,"MEAN_ANOMALY":236.9545,"EPHEMERIS_TYPE":0,"CLASSIFICATION_TYPE":"U","NORAD_CAT_ID":57857,"ELEMENT_SET_NO":999,"REV_AT_EPOCH":14072,"BSTAR":-0.00010395123,"MEAN_MOTION_DOT":-3.434e-5,"MEAN_MOTION_DDOT":0}]
